NORAD_CAT_ID,OBJECT_NAME,OBJECT_TYPE,EPOCH,MEAN_MOTION,ECCENTRICITY,INCLINATION,RA_OF_ASC_NODE,ARG_OF_PERICENTER,MEAN_ANOMALY,BSTAR,MEAN_MOTION_DOT,MEAN_MOTION_DDOT,TLE_LINE0,TLE_LINE1,TLE_LINE2,SEMIMAJOR_AXIS,PERIOD,APOGEE,PERIGEE,DECAYED
52365.0,STARLINK-3874,PAYLOAD,2022-08-10 17:07:18,15.07182029,0.000185,53.2126,296.2121,40.2305,236.7744,0.0032972,0.00050233,0.0,0 STARLINK-3874,1 52365U 22045AL  22222.71341435  .00050233  00000-0  32972-2 0  9990,2 52365  53.2126 296.2121 0001850  40.2305 236.7744 15.07182029 18606,6922.953,95.543,546.099,543.5369999999998,0.0
52365.0,STARLINK-3874,PAYLOAD,2022-08-10 22:00:00,15.07219426,0.0001740999999999,53.2128,295.3007,42.2362,258.2567,-0.0012782,-0.00019695,0.0,0 STARLINK-3874,1 52365U 22045AL  22222.91667824 -.00019695  00000-0 -12782-2 0  9991,2 52365  53.2128 295.3007 0001741  42.2362 258.2567 15.07219426  1308,6922.8380000000025,95.54,545.909,543.498,0.0
52365.0,STARLINK-3874,PAYLOAD,2022-08-11 06:00:02,15.07192885,0.0001811999999999,53.2128,293.8077,49.6468,260.4964,-3.7036e-06,-3.4e-06,0.0,0 STARLINK-3874,1 52365U 22045AL  22223.25002315 -.00000340  00000-0 -37036-5 0  9996,2 52365  53.2128 293.8077 0001812  49.6468 260.4964 15.07192885 18689,6922.92,95.542,546.039,543.53,0.0
52365.0,STARLINK-3874,PAYLOAD,2022-08-11 14:00:01,15.0717326,0.0002025,53.2127,292.3168,44.0249,275.6779,0.0023779,0.00036067,0.0,0 STARLINK-3874,1 52365U 22045AL  22223.58334491  .00036067  00000-0  23779-2 0  9994,2 52365  53.2127 292.3168 0002025  44.0249 275.6779 15.07173260  1305,6922.98,95.543,546.247,543.443,0.0
52365.0,STARLINK-3874,PAYLOAD,2022-08-12 14:00:01,15.07194266,0.0002104,53.2126,287.8387,43.8842,304.6997,0.0028829,0.00043861,0.0,0 STARLINK-3874,1 52365U 22045AL  22224.58334491  .00043861  00000-0  28829-2 0  9996,2 52365  53.2126 287.8387 0002104  43.8842 304.6997 15.07194266  1304,6922.915,95.542,546.237,543.3240000000002,0.0
52365.0,STARLINK-3874,PAYLOAD,2022-08-12 22:00:01,15.07221795,0.0001959,53.2126,286.3444,46.1245,312.1596,-0.00024498,-4.012e-05,0.0,0 STARLINK-3874,1 52365U 22045AL  22224.91668981 -.00004012  00000-0 -24498-3 0  9993,2 52365  53.2126 286.3444 0001959  46.1245 312.1596 15.07221795  1309,6922.831,95.54,546.052,543.34,0.0
52365.0,STARLINK-3874,PAYLOAD,2022-08-13 06:00:02,15.07247155,0.0001924,53.2127,284.8516,47.8354,320.0884,-0.0024713,-0.00037747,0.0,0 STARLINK-3874,1 52365U 22045AL  22225.25002315 -.00037747  00000-0 -24713-2 0  9994,2 52365  53.2127 284.8516 0001924  47.8354 320.0884 15.07247155 18993,6922.753000000002,95.538,545.95,543.286,0.0
52365.0,STARLINK-3874,PAYLOAD,2022-08-13 14:00:01,15.07187488,0.0002063,53.2125,283.3603,42.0081,335.5235,0.0020933,0.00031709,0.0,0 STARLINK-3874,1 52365U 22045AL  22225.58334491  .00031709  00000-0  20933-2 0  9993,2 52365  53.2125 283.3603 0002063  42.0081 335.5235 15.07187488  1301,6922.936,95.542,546.229,543.373,0.0
52365.0,STARLINK-3874,PAYLOAD,2022-08-13 22:00:00,15.0720269,0.0001889,53.2124,281.8659,44.6704,342.4887,0.00015062,2.01e-05,0.0,0 STARLINK-3874,1 52365U 22045AL  22225.91667824  .00002010  00000-0  15062-3 0  9990,2 52365  53.2124 281.8659 0001889  44.6704 342.4887 15.07202690  1302,6922.89,95.541,546.062,543.447,0.0
52365.0,STARLINK-3874,PAYLOAD,2022-08-14 06:00:02,15.07222239,0.0001894,53.2142,280.3697,48.5725,348.2764,-0.00057227,-8.988e-05,0.0,0 STARLINK-3874,1 52365U 22045AL  22226.25002315 -.00008988  00000-0 -57227-3 0  9997,2 52365  53.2142 280.3697 0001894  48.5725 348.2764 15.07222239 19140,6922.83,95.54,546.006,543.383,0.0
52365.0,STARLINK-3874,PAYLOAD,2022-08-14 14:00:01,15.07194135,0.0002053,53.2122,278.8818,41.8391,4.5997,0.0029287,0.00044566,0.0,0 STARLINK-3874,1 52365U 22045AL  22226.58334491  .00044566  00000-0  29287-2 0  9990,2 52365  53.2122 278.8818 0002053  41.8391   4.5997 15.07194135  1300,6922.916,95.542,546.202,543.359,0.0
52365.0,STARLINK-3874,PAYLOAD,2022-08-14 22:00:00,15.07218985,0.0001895,53.2121,277.3873,46.2142,9.8663,-0.00057453,-9.022e-05,0.0,0 STARLINK-3874,1 52365U 22045AL  22226.91667824 -.00009022  00000-0 -57453-3 0  9993,2 52365  53.2121 277.3873 0001895  46.2142   9.8663 15.07218985  1308,6922.84,95.54,546.0169999999998,543.393,0.0
52365.0,STARLINK-3874,PAYLOAD,2022-08-15 14:00:01,15.07176616,0.0002130999999999,53.2117,274.4033,44.872,30.4884,0.0028695,0.00043633,0.0,0 STARLINK-3874,1 52365U 22045AL  22227.58334491  .00043633  00000-0  28695-2 0  9997,2 52365  53.2117 274.4033 0002131  44.8720  30.4884 15.07176616  1308,6922.969,95.543,546.31,543.359,0.0
52365.0,STARLINK-3874,PAYLOAD,2022-08-15 16:00:00,15.0719637,0.0002133,53.2119,274.0297,44.7439,123.0146,0.00065327,9.672e-05,0.0,0 STARLINK-3874,1 52365U 22045AL  22227.66667824  .00009672  00000-0  65327-3 0  9994,2 52365  53.2119 274.0297 0002133  44.7439 123.0146 15.07196370 19359,6922.909000000002,95.542,546.251,543.297,0.0
52365.0,STARLINK-3874,PAYLOAD,2022-08-15 22:00:00,15.07187804,0.0001959,53.2124,272.9087,49.5421,35.439,0.0011671,0.00017518,0.0,0 STARLINK-3874,1 52365U 22045AL  22227.91667824  .00017518  00000-0  11671-2 0  9992,2 52365  53.2124 272.9087 0001959  49.5421  35.4390 15.07187804  1303,6922.935,95.542,546.156,543.444,0.0
52365.0,STARLINK-3874,PAYLOAD,2022-08-16 14:00:01,15.07185578,0.0002158,53.2133,269.9249,45.6957,58.5429,0.0028149,0.00042803,0.0,0 STARLINK-3874,1 52365U 22045AL  22228.58334491  .00042803  00000-0  28149-2 0  9990,2 52365  53.2133 269.9249 0002158  45.6957  58.5429 15.07185578  1307,6922.941999999999,95.542,546.3009999999998,543.313,0.0
52365.0,STARLINK-3874,PAYLOAD,2022-08-16 22:00:00,15.0719599,0.0001994,53.2133,268.4303,50.4863,63.3893,0.0017144999999999,0.00025904,0.0,0 STARLINK-3874,1 52365U 22045AL  22228.91667824  .00025904  00000-0  17145-2 0  9993,2 52365  53.2133 268.4303 0001994  50.4863  63.3893 15.07195990  1307,6922.91,95.542,546.155,543.395,0.0
52365.0,STARLINK-3874,PAYLOAD,2022-08-17 14:00:01,15.07203818,0.0002173,53.2131,265.4465,44.9543,88.1961,-0.00059258,-9.292e-05,0.0,0 STARLINK-3874,1 52365U 22045AL  22229.58334491 -.00009292  00000-0 -59258-3 0  9994,2 52365  53.2131 265.4465 0002173  44.9543  88.1961 15.07203818 19640,6922.886,95.541,546.255,543.247,0.0
52365.0,STARLINK-3874,PAYLOAD,2022-08-17 16:00:00,15.07216399,0.0002137,53.2131,265.0728,45.2015,180.353,-0.0028995,-0.00044162,0.0,0 STARLINK-3874,1 52365U 22045AL  22229.66667824 -.00044162  00000-0 -28995-2 0  9990,2 52365  53.2131 265.0728 0002137  45.2015 180.3530 15.07216399  1305,6922.848000000001,95.54,546.192,543.2330000000002,0.0
52365.0,STARLINK-3874,PAYLOAD,2022-08-18 14:00:01,15.07185312,0.0002229,53.2134,260.9682,44.3958,117.6226,0.0024296,0.00036874,0.0,0 STARLINK-3874,1 52365U 22045AL  22230.58334491  .00036874  00000-0  24296-2 0  9993,2 52365  53.2134 260.9682 0002229  44.3958 117.6226 15.07185312  1304,6922.943,95.542,546.351,543.265,0.0
52365.0,STARLINK-3874,PAYLOAD,2022-08-18 22:00:00,15.07186037,0.0002069,53.214,259.4731,49.05,122.5995,0.0025223,0.000383,0.0,0 STARLINK-3874,1 52365U 22045AL  22230.91667824  .00038300  00000-0  25223-2 0  9996,2 52365  53.2140 259.4731 0002069  49.0500 122.5995 15.07186037 19847,6922.941,95.542,546.238,543.373,0.0
52365.0,STARLINK-3874,PAYLOAD,2022-08-19 14:00:01,15.07200517,0.0002253,53.2138,256.49,43.9249,146.991,-0.00039666,-6.316e-05,0.0,0 STARLINK-3874,1 52365U 22045AL  22231.58334491 -.00006316  00000-0 -39666-3 0  9992,2 52365  53.2138 256.4900 0002253  43.9249 146.9910 15.07200517  1306,6922.896,95.541,546.321,543.201,0.0
52365.0,STARLINK-3874,PAYLOAD,2022-08-19 16:00:00,15.07212134,0.0002198,53.2139,256.1164,44.4722,238.8472,-0.0024605,-0.00037549,0.0,0 STARLINK-3874,1 52365U 22045AL  22231.66667824 -.00037549  00000-0 -24605-2 0  9998,2 52365  53.2139 256.1164 0002198  44.4722 238.8472 15.07212134 19958,6922.861,95.541,546.247,543.2040000000002,0.0
52365.0,STARLINK-3874,PAYLOAD,2022-08-19 22:00:00,15.07169282,0.0002054,53.2141,254.9956,47.7027,152.8407,0.002587,0.00039277,0.0,0 STARLINK-3874,1 52365U 22045AL  22231.91667824  .00039277  00000-0  25870-2 0  9999,2 52365  53.2141 254.9956 0002054  47.7027 152.8407 15.07169282  1309,6922.9919999999975,95.543,546.279,543.435,0.0
52365.0,STARLINK-3874,PAYLOAD,2022-08-20 08:00:01,15.07197745,0.0002248,53.2141,253.1313,46.1583,256.3961,-0.00077115,-0.00012001,0.0,0 STARLINK-3874,1 52365U 22045AL  22232.33334491 -.00012001  00000-0 -77115-3 0  9995,2 52365  53.2141 253.1313 0002248  46.1583 256.3961 15.07197745 20055,6922.905,95.542,546.326,543.2130000000002,0.0
52365.0,STARLINK-3874,PAYLOAD,2022-08-20 14:00:01,15.07192995,0.0002269,53.214,252.012,44.2679,175.4982,0.00086698,0.00012934,0.0,0 STARLINK-3874,1 52365U 22045AL  22232.58334491  .00012934  00000-0  86698-3 0  9991,2 52365  53.2140 252.0120 0002269  44.2679 175.4982 15.07192995  1309,6922.919,95.542,546.355,543.2130000000002,0.0
52365.0,STARLINK-3874,PAYLOAD,2022-08-20 22:00:00,15.07177245,0.0002088,53.2141,250.5177,49.1483,180.2467,0.0026846,0.00040787,0.0,0 STARLINK-3874,1 52365U 22045AL  22232.91667824  .00040787  00000-0  26846-2 0  9992,2 52365  53.2141 250.5177 0002088  49.1483 180.2467 15.07177245  1304,6922.967,95.543,546.278,543.387,0.0
52365.0,STARLINK-3874,PAYLOAD,2022-08-21 06:00:00,15.07212745,0.0002208,53.2141,249.0264,48.1769,190.8331,-0.0015550999999999,-0.00023882,0.0,0 STARLINK-3874,1 52365U 22045AL  22233.25001157 -.00023882  00000-0 -15551-2 0  9991,2 52365  53.2141 249.0264 0002208  48.1769 190.8331 15.07212745 20194,6922.859,95.541,546.252,543.195,0.0
52365.0,STARLINK-3874,PAYLOAD,2022-08-21 14:00:01,15.07205068,0.000227,53.2137,247.5341,45.5776,203.0583,-1.6627000000000002e-05,-5.37e-06,0.0,0 STARLINK-3874,1 52365U 22045AL  22233.58334491 -.00000537  00000-0 -16627-4 0  9996,2 52365  53.2137 247.5341 0002270  45.5776 203.0583 15.07205068  1304,6922.882,95.541,546.319,543.1759999999998,0.0
